318P/McNaught-Hartley,e,17.8717,35.5763,313.3264,7.512069,0.0478701,0.67388463,155.8352,09/22.0/2024,2000,g  8.5,6.0
# From MPC 97499
319P/Catalina-McNaught,e,15.0941,111.3455,203.6432,3.563195,0.1465361,0.66627608,132.7677,09/22.0/2024,2000,g 15.0,4.0
# From MPC 96281
320P/McNaught,e,4.9028,295.9400,0.7680,3.095408,0.1809786,0.68479483,243.4515,09/22.0/2024,2000,g 20.5,4.0
# From MPC105243
321P/SOHO,e,20.0688,165.0186,172.7468,2.422215,0.2614478,0.98103364,0.0000,10/26.5921/2023,2000,g 20.0,4.0
# From MPC102103
322P/SOHO,e,11.4624,351.4444,56.9750,2.508431,0.2480852,0.97997171,0.0000,08/21.1129/2023,2000,g 19.0,4.0
# From MPEC 2023-XP6
323P/SOHO,e,5.3273,324.2806,353.1251,2.583828,0.2373060,0.98461309,0.0000,03/14.2970/2025,2000,g 20.0,4.0
# From MPEC 2024-F21
323P-B/SOHO,e,5.4601,323.4620,353.9675,2.889270,0.2006882,0.98611698,0.0000,12/16.2885/2025,2000,g 26.0,4.0
# From MPEC 2024-F21
323P-C/SOHO,e,5.3403,324.1989,353.2067,2.610770,0.2336421,0.98476169,0.0000,04/07.1047/2025,2000,g 27.0,4.0
# From MPEC 2021-W31
324P/LaSagra,e,21.3991,270.5721,57.5106,3.096326,0.1808981,0.15300495,223.7875,09/22.0/2024,2000,g 13.0,4.0
# From MPEC 2024-LE0
325P/Yang-Gao,e,16.8465,256.8600,344.9291,3.546361,0.1475807,0.58886607,134.3758,09/22.0/2024,2000,g 14.0,4.0
# From MPEC 2024-LE0
326P/Hill,e,2.4724,99.7635,278.5091,4.072837,0.1199109,0.32040612,32.0374,09/22.0/2024,2000,g 13.5,4.0
# From MPEC 2024-M41
327P/VanNess,e,36.2412,173.9944,185.0426,3.562629,0.1465710,0.56277546,110.0488,09/22.0/2024,2000,g 16.0,4.0
# From MPEC 2024-RQ6
328P/LONEOS-Tucker,e,17.6730,341.6074,30.6618,4.189324,0.1149445,0.55281479,6.4420,09/22.0/2024,2000,g 14.5,4.0
# From MPC101101
329P/LINEAR-Catalina,e,21.7177,87.6871,343.5762,5.184022,0.0835033,0.67886125,268.2744,09/22.0/2024,2000,g 13.5,4.0
# From MPEC 2023-J29
330P/Catalina,e,15.7342,293.0809,188.8207,6.616825,0.0579068,0.55017515,170.6033,09/22.0/2024,2000,g 12.0,4.0
# From MPEC 2024-Q20
331P/Gibbs,e,9.7401,216.7487,185.2451,3.003770,0.1893233,0.04151791,273.4955,09/22.0/2024,2000,g 12.0,4.0
# From MPEC 2016-K18
332P/Ikeya-Murakami,e,9.3836,3.7565,152.2889,3.086578,0.1817557,0.48958578,205.5191,09/22.0/2024,2000,g 18.0,4.0
# From MPEC 2016-K18
332P-A/Ikeya-Murakami,e,9.3840,152.3106,3.7353,3.086569,0.1817566,0.48959143,205.5183,09/22.0/2024,2000,g  9.0,4.0
# From MPEC 2016-EI8
332P-B/Ikeya-Murakami,e,9.3805,3.8028,152.3711,3.082329,0.1821317,0.48970701,359.9699,03/17.0/2016,2000,g 19.0,4.0
# From MPEC 2016-K18
332P-C/Ikeya-Murakami,e,9.3831,152.3018,3.7358,3.086535,0.1817595,0.48959699,205.5358,09/22.0/2024,2000,g 16.5,4.0
# From MPEC 2016-ED0
332P-D/Ikeya-Murakami,e,9.3761,3.7923,152.4393,3.081138,0.1822373,0.48977814,359.9486,03/17.0/2016,2000,g 19.0,4.0
# From MPEC 2016-ED0
332P-E/Ikeya-Murakami,e,9.3774,3.8228,152.2825,3.079877,0.1823493,0.48922008,359.9889,03/17.0/2016,2000,g 21.0,4.0
# From MPEC 2016-ED0
332P-F/Ikeya-Murakami,e,9.5293,3.4757,152.8203,3.163214,0.1751908,0.49918860,359.8501,03/17.0/2016,2000,g 21.0,4.0
# From MPEC 2016-ED0
332P-G/Ikeya-Murakami,e,9.2523,3.6955,154.4000,3.050519,0.1849880,0.49200362,359.9006,03/19.0/2016,2000,g 19.0,4.0
# From MPC100285
332P-H/Ikeya-Murakami,e,9.3836,152.3025,3.7355,3.086717,0.1817435,0.48963273,205.4524,09/22.0/2024,2000,g 19.0,4.0
# From MPEC 2016-ED0
332P-I/Ikeya-Murakami,e,9.3791,3.8048,152.3297,3.081767,0.1821815,0.48955490,359.9360,03/17.0/2016,2000,g 20.5,2.0
# From MPEC 2016-EI8
332P-J/Ikeya-Murakami,e,9.4296,3.6729,152.7712,3.115165,0.1792596,0.49429435,359.8613,03/17.0/2016,2000,g 20.5,2.0
# From MPEC 2024-NE4
333P/LINEAR,e,132.0216,115.7057,26.0184,4.220444,0.1136755,0.73629818,352.2360,09/22.0/2024,2000,g 15.0,4.0
# From MPEC 2023-J29
334P/NEAT,e,20.3707,90.4389,90.0390,6.827782,0.0552439,0.35138685,147.3744,09/22.0/2024,2000,g 10.5,4.0
# From MPEC 2023-M14
335P/Gibbs,e,7.2952,330.8064,162.3044,3.577545,0.1456553,0.54663428,112.4154,09/22.0/2024,2000,g 16.8,4.0
# From MPC105244
336P/McNaught,e,17.8331,298.2040,308.6235,5.037776,0.0871657,0.44440826,243.7985,09/22.0/2024,2000,g 13.5,4.0
# From MPEC 2024-A43
337P/WISE,e,15.8330,104.1011,163.3591,3.299332,0.1644618,0.49933803,133.2448,09/22.0/2024,2000,g 17.0,4.0
# From MPEC 2024-RQ6
338P/McNaught,e,25.3848,9.7926,4.5988,3.893729,0.1282790,0.41240942,6.3754,09/22.0/2024,2000,g 12.0,4.0
# From MPC101101
339P/Gibbs,e,5.7333,27.4713,172.6849,3.699453,0.1385153,0.63565360,53.7546,09/22.0/2024,2000,g 17.0,4.0
# From MPC133426
340P/Boattini,e,2.0787,291.6617,36.0641,4.248293,0.1125596,0.28022649,321.5908,09/22.0/2024,2000,g 14.3,4.0
# From MPEC 2023-J29
341P/Gibbs,e,3.7964,29.9589,312.3461,4.286847,0.1110445,0.41531460,336.3846,09/22.0/2024,2000,g 12.5,4.0
# From MPC101101
342P/SOHO,e,11.6951,73.3229,27.6335,3.041059,0.1858518,0.98294966,0.0000,02/07.5700/2027,2000,g  9.0,4.0
# From MPEC 2024-PC5
343P/NEAT-LONEOS,e,5.5973,257.0566,137.5968,5.457525,0.0773055,0.58513000,215.5385,09/22.0/2024,2000,g 14.0,4.0
# From MPEC 2023-J29
344P/Read,e,3.4992,273.1007,140.5819,4.856698,0.0920858,0.42379728,264.6384,09/22.0/2024,2000,g 13.0,4.0
# From MPEC 2024-RQ6
345P/LINEAR,e,2.7280,154.5107,196.6776,4.031375,0.1217655,0.22126076,2.7266,09/22.0/2024,2000,g 12.0,4.0
# From MPEC 2022-K19
346P/Catalina,e,22.2186,102.4568,336.0353,4.469749,0.1042988,0.50389912,289.2667,09/22.0/2024,2000,g 14.0,4.0
# From MPEC 2024-RQ6
347P/PANSTARRS,e,11.7656,260.9904,98.2367,3.603593,0.1440789,0.38682738,62.0180,09/22.0/2024,2000,g 15.0,4.0
# From MPEC 2022-ED3
348P/PANSTARRS,e,17.7393,312.9224,135.7353,3.151844,0.1761396,0.30743174,167.6682,09/22.0/2024,2000,g 14.0,4.0
# From MPEC 2024-LE0
349P/Lemmon,e,5.4885,331.7458,255.7824,3.578548,0.1455941,0.29857996,17.1701,09/22.0/2024,2000,g 14.0,4.0
# From MPC111775
350P/McNaught,e,7.3638,65.2927,140.0230,4.081118,0.1195461,0.09453416,295.2897,09/22.0/2024,2000,g 14.0,4.0
# From MPC105244
351P/Wiegert-PANSTARRS,e,12.7747,352.6757,283.3074,4.440751,0.1053221,0.29475324,340.4775,09/22.0/2024,2000,g 12.5,4.0
# From MPEC 2023-J29
352P/Skiff,e,21.0103,28.0225,309.4011,6.653473,0.0574290,0.61652786,152.2130,09/22.0/2024,2000,g 13.2,4.0
# From MPEC 2020-AA5
353P/McNaught,e,28.4171,121.5200,230.4927,4.170705,0.1157151,0.46988063,285.0863,09/22.0/2024,2000,g 14.5,4.0
# From MPEC 2024-EF7
354P/LINEAR,e,5.2507,320.0685,132.8506,2.290026,0.2844090,0.12449121,97.8245,09/22.0/2024,2000,g 15.5,4.0
# From MPEC 2023-CD7
355P/LINEAR-NEAT,e,11.0463,51.4319,336.3004,3.469321,0.1525237,0.50811527,26.4855,09/22.0/2024,2000,g 15.5,2.0
# From MPEC 2022-F14
356P/WISE,e,9.6406,160.8027,226.1681,4.153763,0.1164237,0.35602520,286.8707,09/22.0/2024,2000,g 14.0,4.0
# From MPC114609
357P/Hill,e,6.3140,44.5777,1.4698,4.455704,0.1047924,0.43612570,241.3423,09/22.0/2024,2000,g 15.5,4.0
# From MPEC 2024-EF7
358P/PANSTARRS,e,11.0665,85.6663,299.4649,3.147540,0.1765010,0.23958499,55.9550,09/22.0/2024,2000,g 18.0,4.0
# From MPC110086
359P/LONEOS,e,10.2628,149.7628,200.2976,4.641623,0.0985597,0.32340550,254.9126,09/22.0/2024,2000,g 13.5,4.0
# From MPEC 2024-RQ6
360P/WISE,e,24.1097,2.1775,354.2819,3.696865,0.1386608,0.49912101,358.3691,09/22.0/2024,2000,g 19.5,6.0
# From MPEC 2023-CD7
361P/Spacewatch,e,13.9008,203.2480,219.0831,4.933330,0.0899485,0.43959335,204.1199,09/22.0/2024,2000,g 12.0,4.0
# From MPC114609
363P/Lemmon,e,5.3898,146.6337,340.8739,3.574977,0.1458123,0.51863885,352.3892,09/22.0/2024,2000,g 17.5,4.0
# From MPEC 2024-M41
364P/PANSTARRS,e,12.0617,46.1072,212.3571,2.892892,0.2003115,0.72089448,99.5148,09/22.0/2024,2000,g 17.0,2.0
# From MPC111775
365P/PANSTARRS,e,9.8500,86.6567,67.4221,3.156420,0.1757567,0.58147939,61.2667,09/22.0/2024,2000,g 17.0,4.0
# From MPC114610
366P/Spacewatch,e,8.8570,70.7229,153.0094,3.499225,0.1505727,0.34844039,340.2849,09/22.0/2024,2000,g 15.0,4.0
# From MPC112395
367P/Catalina,e,8.4596,58.6613,172.7062,3.510867,0.1498244,0.27996725,343.2781,09/22.0/2024,2000,g 17.5,2.0
# From MPC114610
368P/NEAT,e,15.4823,257.8586,118.9739,5.533445,0.0757200,0.62612369,166.4408,09/22.0/2024,2000,g 14.0,4.0
# From MPC114610
369P/Hill,e,10.3218,47.2950,13.2077,4.379388,0.1075434,0.55594151,232.8114,09/22.0/2024,2000,g 15.0,4.0
# From MPEC 2021-F20
370P/NEAT,e,19.4230,55.0821,356.7595,6.438263,0.0603325,0.61544468,138.3663,09/22.0/2024,2000,g 13.0,4.0
# From MPC114610
371P/LINEAR-Skiff,e,17.3852,67.2829,308.5692,4.180476,0.1153096,0.47681275,250.9508,09/22.0/2024,2000,g 16.0,4.0
# From MPEC 2020-K19
372P/McNaught,e,9.5063,27.5519,326.0134,4.511485,0.1028548,0.15158094,222.1753,09/22.0/2024,2000,g 13.5,4.0
# From MPEC 2021-F20
373P/Rinner,e,13.7702,231.9416,221.0822,3.798150,0.1331515,0.39370757,265.0762,09/22.0/2024,2000,g 14.5,4.0
# From MPC114610
374P/Larson,e,10.7635,7.8920,51.5344,4.971063,0.0889263,0.46376385,184.7839,09/22.0/2024,2000,g 14.0,4.0
# From MPEC 2021-F20
375P/Hill,e,17.3686,359.8727,119.4040,5.546323,0.0754564,0.65996257,158.4857,09/22.0/2024,2000,g 16.0,4.0
# From MPEC 2024-RQ6
376P/LONEOS,e,1.1662,312.8523,285.4047,5.756746,0.0713573,0.51380735,130.9064,09/22.0/2024,2000,g 12.5,4.0
# From MPEC 2022-N37
377P/Scotti,e,9.0259,226.0081,354.8726,6.696549,0.0568758,0.25115318,87.3385,09/22.0/2024,2000,g  9.5,4.0
# From MPEC 2024-D33
378P/McNaught,e,19.1511,93.8042,193.3704,6.290456,0.0624713,0.46455892,90.1704,09/22.0/2024,2000,g 12.0,4.0
# From MPC115889
379P/Spacewatch,e,12.4382,30.4920,184.4817,3.486939,0.1513692,0.35010645,281.5238,09/22.0/2024,2000,g 15.0,4.0
# From MPEC 2023-C45
380P/PANSTARRS,e,8.0216,127.9414,87.8999,4.431592,0.1056488,0.33606095,210.3239,09/22.0/2024,2000,g 12.5,4.0
# From MPEC 2021-J28
381P/LINEAR-Spacewatch,e,28.3534,173.3017,173.8523,7.144148,0.0516153,0.68095666,94.0894,09/22.0/2024,2000,g 17.5,2.0
# From MPEC 2024-MB8
382P/Larson,e,8.2617,171.4237,162.1894,5.923599,0.0683637,0.26924223,71.4255,09/22.0/2024,2000,g  8.0,4.0
# From MPEC 2022-OB6
383P/Christensen,e,12.3196,207.8534,133.7470,3.548323,0.1474584,0.59867207,264.3742,09/22.0/2024,2000,g 18.0,4.0
# From MPEC 2024-RQ6
